CCSDS_OMM_VERS = 2.0
CREATION_DATE  = 
ORIGINATOR     = 

OBJECT_NAME    = TITAN 4B R/B
OBJECT_ID      = 2000-047B
CENTER_NAME    = EARTH
REF_FRAME      = TEME
TIME_SYSTEM    = UTC
MEAN_ELEMENT_THEORY = SGP/SGP4

EPOCH          = 2025-11-07T06:31:51.708864
MEAN_MOTION    = 15.08389560
ECCENTRICITY   = .00424251
INCLINATION    = 67.9920
RA_OF_ASC_NODE = 24.4386
ARG_OF_PERICENTER = 185.7598
MEAN_ANOMALY   = 174.3070

EPHEMERIS_TYPE = 0
CLASSIFICATION_TYPE = U
NORAD_CAT_ID   = 26474
ELEMENT_SET_NO = 999
REV_AT_EPOCH   = 37444
BSTAR          = .40842882E-3
MEAN_MOTION_DOT = .6369E-4
MEAN_MOTION_DDOT = 0

CCSDS_OMM_VERS = 2.0
CREATION_DATE  = 
ORIGINATOR     = 

OBJECT_NAME    = ENVISAT
OBJECT_ID      = 2002-009A
CENTER_NAME    = EARTH
REF_FRAME      = TEME
TIME_SYSTEM    = UTC
MEAN_ELEMENT_THEORY = SGP/SGP4

EPOCH          = 2025-11-07T07:35:08.164608
MEAN_MOTION    = 14.38978716
ECCENTRICITY   = .00013248
INCLINATION    = 98.3541
RA_OF_ASC_NODE = 262.9654
ARG_OF_PERICENTER = 83.7617
MEAN_ANOMALY   = 38.0097

EPHEMERIS_TYPE = 0
CLASSIFICATION_TYPE = U
NORAD_CAT_ID   = 27386
ELEMENT_SET_NO = 999
REV_AT_EPOCH   = 24157
BSTAR          = .84693137E-4
MEAN_MOTION_DOT = .219E-5
MEAN_MOTION_DDOT = 0

CCSDS_OMM_VERS = 2.0
CREATION_DATE  = 
ORIGINATOR     = 

OBJECT_NAME    = IDEFIX & ARIANE 42P R/B
OBJECT_ID      = 2002-021B
CENTER_NAME    = EARTH
REF_FRAME      = TEME
TIME_SYSTEM    = UTC
MEAN_ELEMENT_THEORY = SGP/SGP4

EPOCH          = 2025-11-07T06:30:42.472224
MEAN_MOTION    = 14.30909810
ECCENTRICITY   = .00115617
INCLINATION    = 98.5732
RA_OF_ASC_NODE = 246.4330
ARG_OF_PERICENTER = 182.6897
MEAN_ANOMALY   = 177.4225

EPHEMERIS_TYPE = 0
CLASSIFICATION_TYPE = U
NORAD_CAT_ID   = 27422
ELEMENT_SET_NO = 999
REV_AT_EPOCH   = 22651
BSTAR          = .19810549E-3
MEAN_MOTION_DOT = .477E-5
MEAN_MOTION_DDOT = 0

CCSDS_OMM_VERS = 2.0
CREATION_DATE  = 
ORIGINATOR     = 

OBJECT_NAME    = AQUA
OBJECT_ID      = 2002-022A
CENTER_NAME    = EARTH
REF_FRAME      = TEME
TIME_SYSTEM    = UTC
MEAN_ELEMENT_THEORY = SGP/SGP4

EPOCH          = 2025-11-07T05:47:00.152736
MEAN_MOTION    = 14.61676809
ECCENTRICITY   = .00010466
INCLINATION    = 98.3983
RA_OF_ASC_NODE = 271.5564
ARG_OF_PERICENTER = 48.7036
MEAN_ANOMALY   = 62.7085

EPHEMERIS_TYPE = 0
CLASSIFICATION_TYPE = U
NORAD_CAT_ID   = 27424
ELEMENT_SET_NO = 999
REV_AT_EPOCH   = 25084
BSTAR          = .35104652E-3
MEAN_MOTION_DOT = .1699E-4
MEAN_MOTION_DDOT = 0

CCSDS_OMM_VERS = 2.0
CREATION_DATE  = 
ORIGINATOR     = 

OBJECT_NAME    = CZ-4B R/B
OBJECT_ID      = 2002-024C
CENTER_NAME    = EARTH
REF_FRAME      = TEME
TIME_SYSTEM    = UTC
MEAN_ELEMENT_THEORY = SGP/SGP4

EPOCH          = 2025-11-07T03:16:02.195328
MEAN_MOTION    = 14.14516492
ECCENTRICITY   = .0050326
INCLINATION    = 98.9055
RA_OF_ASC_NODE = 0.0227
ARG_OF_PERICENTER = 12.2131
MEAN_ANOMALY   = 45.6724

EPHEMERIS_TYPE = 0
CLASSIFICATION_TYPE = U
NORAD_CAT_ID   = 27432
ELEMENT_SET_NO = 999
REV_AT_EPOCH   = 21191
BSTAR          = .64347925E-4
MEAN_MOTION_DOT = .8E-6
MEAN_MOTION_DDOT = 0

CCSDS_OMM_VERS = 2.0
CREATION_DATE  = 
ORIGINATOR     = 

OBJECT_NAME    = MIDORI II (ADEOS-II)
OBJECT_ID      = 2002-056A
CENTER_NAME    = EARTH
REF_FRAME      = TEME
TIME_SYSTEM    = UTC
MEAN_ELEMENT_THEORY = SGP/SGP4

EPOCH          = 2025-11-07T06:58:26.590656
MEAN_MOTION    = 14.29167684
ECCENTRICITY   = .00015673
INCLINATION    = 98.7578
RA_OF_ASC_NODE = 264.0719
ARG_OF_PERICENTER = 41.6145
MEAN_ANOMALY   = 318.5155

EPHEMERIS_TYPE = 0
CLASSIFICATION_TYPE = U
NORAD_CAT_ID   = 27597
ELEMENT_SET_NO = 999
REV_AT_EPOCH   = 19281
BSTAR          = .19424627E-3
MEAN_MOTION_DOT = .448E-5
MEAN_MOTION_DDOT = 0

CCSDS_OMM_VERS = 2.0
CREATION_DATE  = 
ORIGINATOR     = 

OBJECT_NAME    = H-2A R/B
OBJECT_ID      = 2002-056E
CENTER_NAME    = EARTH
REF_FRAME      = TEME
TIME_SYSTEM    = UTC
MEAN_ELEMENT_THEORY = SGP/SGP4

EPOCH          = 2025-11-06T19:10:53.152320
MEAN_MOTION    = 14.33636523
ECCENTRICITY   = .00704799
INCLINATION    = 98.3010
RA_OF_ASC_NODE = 270.9983
ARG_OF_PERICENTER = 166.8646
MEAN_ANOMALY   = 211.2798

EPHEMERIS_TYPE = 0
CLASSIFICATION_TYPE = U
NORAD_CAT_ID   = 27601
ELEMENT_SET_NO = 999
REV_AT_EPOCH   = 19650
BSTAR          = .16244602E-3
MEAN_MOTION_DOT = .422E-5
MEAN_MOTION_DDOT = 0

CCSDS_OMM_VERS = 2.0
CREATION_DATE  = 
ORIGINATOR     = 

OBJECT_NAME    = CZ-4B R/B
OBJECT_ID      = 2003-049C
CENTER_NAME    = EARTH
REF_FRAME      = TEME
TIME_SYSTEM    = UTC
MEAN_ELEMENT_THEORY = SGP/SGP4

EPOCH          = 2025-11-06T23:17:32.265312
MEAN_MOTION    = 14.54857060
ECCENTRICITY   = .00471585
INCLINATION    = 98.6762
RA_OF_ASC_NODE = 296.1880
ARG_OF_PERICENTER = 245.7523
MEAN_ANOMALY   = 113.8741

EPHEMERIS_TYPE = 0
CLASSIFICATION_TYPE = U
NORAD_CAT_ID   = 28059
ELEMENT_SET_NO = 999
REV_AT_EPOCH   = 16875
BSTAR          = .1360357E-3
MEAN_MOTION_DOT = .541E-5
MEAN_MOTION_DDOT = 0

CCSDS_OMM_VERS = 2.0
CREATION_DATE  = 
ORIGINATOR     = 

OBJECT_NAME    = CZ-2C R/B
OBJECT_ID      = 2004-012C
CENTER_NAME    = EARTH
REF_FRAME      = TEME
TIME_SYSTEM    = UTC
MEAN_ELEMENT_THEORY = SGP/SGP4

EPOCH          = 2025-11-07T03:04:50.740320
MEAN_MOTION    = 15.52301565
ECCENTRICITY   = .0019947
INCLINATION    = 97.7484
RA_OF_ASC_NODE = 0.8876
ARG_OF_PERICENTER = 44.0432
MEAN_ANOMALY   = 316.2405

EPHEMERIS_TYPE = 0
CLASSIFICATION_TYPE = U
NORAD_CAT_ID   = 28222
ELEMENT_SET_NO = 999
REV_AT_EPOCH   = 18519
BSTAR          = .57893068E-3
MEAN_MOTION_DOT = .355E-3
MEAN_MOTION_DDOT = 0

CCSDS_OMM_VERS = 2.0
CREATION_DATE  = 
ORIGINATOR     = 

OBJECT_NAME    = SL-16 R/B
OBJECT_ID      = 2004-021B
CENTER_NAME    = EARTH
REF_FRAME      = TEME
TIME_SYSTEM    = UTC
MEAN_ELEMENT_THEORY = SGP/SGP4

EPOCH          = 2025-11-06T21:52:06.417696
MEAN_MOTION    = 14.14569582
ECCENTRICITY   = .0006832
INCLINATION    = 70.9970
RA_OF_ASC_NODE = 130.1511
ARG_OF_PERICENTER = 237.6847
MEAN_ANOMALY   = 122.3614

EPHEMERIS_TYPE = 0
CLASSIFICATION_TYPE = U
NORAD_CAT_ID   = 28353
ELEMENT_SET_NO = 999
REV_AT_EPOCH   = 10547
BSTAR          = .30143E-4
MEAN_MOTION_DOT = .1E-6
MEAN_MOTION_DDOT = 0

CCSDS_OMM_VERS = 2.0
CREATION_DATE  = 
ORIGINATOR     = 

OBJECT_NAME    = CZ-4B R/B
OBJECT_ID      = 2004-035C
CENTER_NAME    = EARTH
REF_FRAME      = TEME
TIME_SYSTEM    = UTC
MEAN_ELEMENT_THEORY = SGP/SGP4

EPOCH          = 2025-11-07T01:02:17.222496
MEAN_MOTION    = 15.26527080
ECCENTRICITY   = .0035241
INCLINATION    = 97.3652
RA_OF_ASC_NODE = 341.8760
ARG_OF_PERICENTER = 45.5289
MEAN_ANOMALY   = 314.8821

EPHEMERIS_TYPE = 0
CLASSIFICATION_TYPE = U
NORAD_CAT_ID   = 28415
ELEMENT_SET_NO = 999
REV_AT_EPOCH   = 16118
BSTAR          = .38851111E-3
MEAN_MOTION_DOT = .10264E-3
MEAN_MOTION_DDOT = 0

CCSDS_OMM_VERS = 2.0
CREATION_DATE  = 
ORIGINATOR     = 

OBJECT_NAME    = CZ-2C R/B
OBJECT_ID      = 2004-046B
CENTER_NAME    = EARTH
REF_FRAME      = TEME
TIME_SYSTEM    = UTC
MEAN_ELEMENT_THEORY = SGP/SGP4

EPOCH          = 2025-11-07T06:24:53.505216
MEAN_MOTION    = 14.26916566
ECCENTRICITY   = .01399667
INCLINATION    = 98.1955
RA_OF_ASC_NODE = 228.8565
ARG_OF_PERICENTER = 156.4365
MEAN_ANOMALY   = 204.3313

EPHEMERIS_TYPE = 0
CLASSIFICATION_TYPE = U
NORAD_CAT_ID   = 28480
ELEMENT_SET_NO = 999
REV_AT_EPOCH   = 9104
BSTAR          = .11386855E-3
MEAN_MOTION_DOT = .266E-5
MEAN_MOTION_DDOT = 0

