TITAN 4B R/B            
1 26474U 00047B   25311.27212626  .00006369  00000+0  40843-3 0  9999
2 26474  67.9920  24.4386 0042425 185.7598 174.3070 15.08389560374444
ENVISAT                 
1 27386U 02009A   25311.31606672  .00000219  00000+0  84693-4 0  9995
2 27386  98.3541 262.9654 0001324  83.7617  38.0097 14.38978716241574
IDEFIX & ARIANE 42P R/B 
1 27422U 02021B   25311.27132491  .00000477  00000+0  19811-3 0  9993
2 27422  98.5732 246.4330 0011561 182.6897 177.4225 14.30909810226519
AQUA                    
1 27424U 02022A   25311.24097399  .00001699  00000+0  35105-3 0  9991
2 27424  98.3983 271.5564 0001046  48.7036  62.7085 14.61676809250845
CZ-4B R/B               
1 27432U 02024C   25311.13613652  .00000080  00000+0  64348-4 0  9991
2 27432  98.9055   0.0227 0050326  12.2131  45.6724 14.14516492211912
MIDORI II (ADEOS-II)    
1 27597U 02056A   25311.29058554  .00000448  00000+0  19425-3 0  9992
2 27597  98.7578 264.0719 0001567  41.6145 318.5155 14.29167684192812
H-2A R/B                
1 27601U 02056E   25310.79922630  .00000422  00000+0  16245-3 0  9996
2 27601  98.3010 270.9983 0070479 166.8646 211.2798 14.33636523196508
CZ-4B R/B               
1 28059U 03049C   25310.97051233  .00000541  00000+0  13604-3 0  9997
2 28059  98.6762 296.1880 0047158 245.7523 113.8741 14.54857060168753
CZ-2C R/B               
1 28222U 04012C   25311.12836505  .00035500  00000+0  57893-3 0  9992
2 28222  97.7484   0.8876 0019947  44.0432 316.2405 15.52301565185191
SL-16 R/B               
1 28353U 04021B   25310.91118539  .00000010  00000+0  30143-4 0  9991
2 28353  70.9970 130.1511 0006832 237.6847 122.3614 14.14569582105474
CZ-4B R/B               
1 28415U 04035C   25311.04325489  .00010264  00000+0  38851-3 0  9999
2 28415  97.3652 341.8760 0035241  45.5289 314.8821 15.26527080161181
CZ-2C R/B               
1 28480U 04046B   25311.26728594  .00000266  00000+0  11387-3 0  9997
2 28480  98.1955 228.8565 0139966 156.4365 204.3313 14.26916566 91047
